ARIANE 5 R/B            
1 28499U 04049H   26106.49291027  .00000525  00000+0  64631-4 0  9993
2 28499  98.2679 276.3796 0083119 227.9706 131.4413 14.85338196151406
CZ-2D R/B               
1 28738U 05024B   26106.76398112  .00032713  00000+0  35208-3 0  9997
2 28738  97.3545 123.4040 0003347 199.2718 160.8415 15.63659267145725
ALOS (DAICHI)           
1 28931U 06002A   26106.62442194  .00000653  00000+0  11739-3 0  9995
2 28931  98.1278  62.4083 0001611 112.1914 247.9462 14.69921366 79053
H-2A R/B                
1 28932U 06002B   26106.67233212  .00005309  00000+0  26141-3 0  9996
2 28932  98.2484 257.0047 0052657 112.2484 248.4343 15.17253083100197
RESURS-DK 1             
1 29228U 06021A   26106.81821971  .00001183  00000+0  73071-4 0  9998
2 29228  69.9296 138.3809 0002547   1.1043 359.0128 15.12952730 93291
CZ-4B R/B               
1 29507U 06046C   26106.86439267  .00003018  00000+0  15276-3 0  9994
2 29507  97.5519 151.6646 0034312 133.5179 226.8915 15.17283089 65831
CZ-2C R/B               
1 31114U 07010B   26106.76902272  .00000073  00000+0  52435-4 0  9990
2 31114  98.4023 218.1469 0059030 182.3484 177.7425 14.20260116985127
COSMO-SKYMED 1          
1 31598U 07023A   26106.83917493  .00001128  00000+0  10375-3 0  9997
2 31598  97.8877 298.1854 0001292  86.1064 274.0305 14.96803796 20613
COSMOS 2428             
1 31792U 07029A   26106.76399708 -.00000145  00000+0 -52106-4 0  9993
2 31792  70.9398 123.4293 0009456 236.2586 123.7634 14.12947794969479
SL-16 R/B               
1 31793U 07029B   26106.69319720 -.00000087  00000+0 -20422-4 0  9993
2 31793  70.9730  92.4966 0002698 271.4805 261.7754 14.14841304970748
KORONAS-FOTON           
1 33504U 09003A   26106.74600190  .00008311  00000+0  17895-3 0  9994
2 33504  82.4301 236.2780 0010607  24.1831 335.9912 15.44369954951610
CZ-2C R/B               
1 37731U 11030B   26106.66364625  .00000528  00000+0  73042-4 0  9993
2 37731  97.8606  63.1869 0051303 225.6863 307.7402 14.81340802795719
H-2A R/B                
1 38341U 12025E   26106.67052601  .00001793  00000+0  16545-3 0  9994
2 38341  98.4792  76.7811 0043998 186.4609 173.6048 14.95409091753890
